$$SOE
2461288.500000000, A.D. 2026-Sep-05 00:00:00.0000, 8.649579277483756E+06, -3.308294861752963E+08, -1.861656280800213E+07,
2461295.500000000, A.D. 2026-Sep-12 00:00:00.0000, 2.042026884422919E+07, -3.285091732680286E+08, -1.747301422862487E+07,
2461302.500000000, A.D. 2026-Sep-19 00:00:00.0000, 3.216324696201349E+07, -3.257435681875879E+08, -1.630578357706147E+07,
2461309.500000000, A.D. 2026-Sep-26 00:00:00.0000, 4.386184063381740E+07, -3.225288105218790E+08, -1.511607218463714E+07,
2461316.500000000, A.D. 2026-Oct-03 00:00:00.0000, 5.549886031622402E+07, -3.188615759323999E+08, -1.390515702877595E+07,
2461323.500000000, A.D. 2026-Oct-10 00:00:00.0000, 6.705660367371243E+07, -3.147391217323786E+08, -1.267439307792920E+07,
2461330.500000000, A.D. 2026-Oct-17 00:00:00.0000, 7.851686245810379E+07, -3.101593348068457E+08, -1.142521550139271E+07,
2461337.500000000, A.D. 2026-Oct-24 00:00:00.0000, 8.986093292072096E+07, -3.051207817840405E+08, -1.015914170904845E+07,
2461344.500000000, A.D. 2026-Oct-31 00:00:00.0000, 1.010696302593631E+08, -2.996227613702971E+08, -8.877773192564696E+06,
2461351.500000000, A.D. 2026-Nov-07 00:00:00.0000, 1.121233078559965E+08, -2.936653585734602E+08, -7.582797145556509E+06,
2461358.500000000, A.D. 2026-Nov-14 00:00:00.0000, 1.230018819301488E+08, -2.872494996705361E+08, -6.275987756487638E+06,
2461365.500000000, A.D. 2026-Nov-21 00:00:00.0000, 1.336848602225864E+08, -2.803770069153887E+08, -4.959206896262318E+06,
2461372.500000000, A.D. 2026-Nov-28 00:00:00.0000, 1.441513741340923E+08, -2.730506555991542E+08, -3.634404295264959E+06,
2461379.500000000, A.D. 2026-Dec-05 00:00:00.0000, 1.543802183525934E+08, -2.652742336502376E+08, -2.303617532962441E+06,
2461386.500000000, A.D. 2026-Dec-12 00:00:00.0000, 1.643498985267803E+08, -2.570526001201495E+08, -9.689715355796963E+05,
2461393.500000000, A.D. 2026-Dec-19 00:00:00.0000, 1.740386854567010E+08, -2.483917419257775E+08, 3.673226592381299E+05,
2461400.500000000, A.D. 2026-Dec-26 00:00:00.0000, 1.834246759682215E+08, -2.392988290081365E+08, 1.702969881165728E+06,
2461407.500000000, A.D. 2027-Jan-02 00:00:00.0000, 1.924858609941066E+08, -2.297822673064052E+08, 3.035593576222703E+06,
2461414.500000000, A.D. 2027-Jan-09 00:00:00.0000, 2.012002011468093E+08, -2.198517486541515E+08, 4.362739382887781E+06,
2461421.500000000, A.D. 2027-Jan-16 00:00:00.0000, 2.095457098889844E+08, -2.095182966400906E+08, 5.681879594866708E+06,
2461428.500000000, A.D. 2027-Jan-23 00:00:00.0000, 2.175005443016417E+08, -1.987943074537823E+08, 6.990418558747455E+06,
2461435.500000000, A.D. 2027-Jan-30 00:00:00.0000, 2.250431034606390E+08, -1.876935846835068E+08, 8.285699032391287E+06,
2461442.500000000, A.D. 2027-Feb-06 00:00:00.0000, 2.321521345281337E+08, -1.762313666060794E+08, 9.565009530475229E+06,
2461449.500000000, A.D. 2027-Feb-13 00:00:00.0000, 2.388068456199517E+08, -1.644243436166804E+08, 1.082559282555533E+07,
2461456.500000000, A.D. 2027-Feb-20 00:00:00.0000, 2.449870224216693E+08, -1.522906654619445E+08, 1.206465576729353E+07,
2461463.500000000, A.D. 2027-Feb-27 00:00:00.0000, 2.506731490917594E+08, -1.398499403833937E+08, 1.327938001988169E+07,
2461470.500000000, A.D. 2027-Mar-06 00:00:00.0000, 2.558465354229591E+08, -1.271232231993911E+08, 1.446693356843033E+07,
2461477.500000000, A.D. 2027-Mar-13 00:00:00.0000, 2.604894474269228E+08, -1.141329893275434E+08, 1.562448325796152E+07,
2461484.500000000, A.D. 2027-Mar-20 00:00:00.0000, 2.645852387903139E+08, -1.009030947686615E+08, 1.674920832621520E+07,
2461491.500000000, A.D. 2027-Mar-27 00:00:00.0000, 2.681184818060329E+08, -8.745872195686111E+07, 1.783831476765953E+07,
2461498.500000000, A.D. 2027-Apr-03 00:00:00.0000, 2.710750962304029E+08, -7.382631108487132E+07, 1.888905038172515E+07,
2461505.500000000, A.D. 2027-Apr-10 00:00:00.0000, 2.734424742516412E+08, -6.003347668330930E+07, 1.989872035255395E+07,
2461512.500000000, A.D. 2027-Apr-17 00:00:00.0000, 2.752095996298156E+08, -4.610890954156151E+07, 2.086470318532124E+07,
2461519.500000000, A.D. 2027-Apr-24 00:00:00.0000, 2.763671590834140E+08, -3.208226440381547E+07, 2.178446679458194E+07,
2461526.500000000, A.D. 2027-May-01 00:00:00.0000, 2.769076442198515E+08, -1.798403409909989E+07, 2.265558450848508E+07,
2461533.500000000, A.D. 2027-May-08 00:00:00.0000, 2.768254423698878E+08, -3.845410357666511E+06, 2.347575079650230E+07,
2461540.500000000, A.D. 2027-May-15 00:00:00.0000, 2.761169130148388E+08, 1.030186832445051E+07, 2.424279670665401E+07,
2461547.500000000, A.D. 2027-May-22 00:00:00.0000, 2.747804466086890E+08, 2.442567754367937E+07, 2.495470471082055E+07,
2461554.500000000, A.D. 2027-May-29 00:00:00.0000, 2.728165077136512E+08, 3.849367318944442E+07, 2.560962228937548E+07,
2461561.500000000, A.D. 2027-Jun-05 00:00:00.0000, 2.702276621668054E+08, 5.247346399836907E+07, 2.620587419629133E+07,
2461568.500000000, A.D. 2027-Jun-12 00:00:00.0000, 2.670185854536727E+08, 6.633278860500537E+07, 2.674197341607779E+07,
2461575.500000000, A.D. 2027-Jun-19 00:00:00.0000, 2.631960515278218E+08, 8.003969373381269E+07, 2.721663059202335E+07,
2461582.500000000, A.D. 2027-Jun-26 00:00:00.0000, 2.587689023161844E+08, 9.356271077123557E+07, 2.762876173690529E+07,
2461589.500000000, A.D. 2027-Jul-03 00:00:00.0000, 2.537479983816105E+08, 1.068710282187895E+08, 2.797749410264894E+07,
2461596.500000000, A.D. 2027-Jul-10 00:00:00.0000, 2.481461514871381E+08, 1.199346576016671E+08, 2.826217012581006E+07,
2461603.500000000, A.D. 2027-Jul-17 00:00:00.0000, 2.419780401607566E+08, 1.327245905065587E+08, 2.848234939853663E+07,
2461610.500000000, A.D. 2027-Jul-24 00:00:00.0000, 2.352601098099986E+08, 1.452129446069270E+08, 2.863780864209043E+07,
2461617.500000000, A.D. 2027-Jul-31 00:00:00.0000, 2.280104594824557E+08, 1.573730970880621E+08, 2.872853970112269E+07,
2461624.500000000, A.D. 2027-Aug-07 00:00:00.0000, 2.202487169832153E+08, 1.691798050884715E+08, 2.875474574229955E+07,
2461631.500000000, A.D. 2027-Aug-14 00:00:00.0000, 2.119959021181546E+08, 1.806093117071074E+08, 2.871683595382150E+07,
2461638.500000000, A.D. 2027-Aug-21 00:00:00.0000, 2.032742808910827E+08, 1.916394333830999E+08, 2.861541855891865E+07,
2461645.500000000, A.D. 2027-Aug-28 00:00:00.0000, 1.941072163532623E+08, 2.022496293528282E+08, 2.845129209147418E+07,
2461652.500000000, A.D. 2027-Sep-04 00:00:00.0000, 1.845190171540926E+08, 2.124210555266135E+08, 2.822543542594141E+07,
2461659.500000000, A.D. 2027-Sep-11 00:00:00.0000, 1.745347845589069E+08, 2.221366023009902E+08, 2.793899683082545E+07,
2461666.500000000, A.D. 2027-Sep-18 00:00:00.0000, 1.641802601142170E+08, 2.313809161352468E+08, 2.759328218387252E+07,
2461673.500000000, A.D. 2027-Sep-25 00:00:00.0000, 1.534816760751842E+08, 2.401404055573805E+08, 2.718974252647412E+07,
2461680.500000000, A.D. 2027-Oct-02 00:00:00.0000, 1.424656103609476E+08, 2.484032325937623E+08, 2.672996115376416E+07,
2461687.500000000, A.D. 2027-Oct-09 00:00:00.0000, 1.311588475320261E+08, 2.561592907654015E+08, 2.621564043093170E+07,
2461694.500000000, A.D. 2027-Oct-16 00:00:00.0000, 1.195882470915430E+08, 2.634001708795470E+08, 2.564858850655125E+07,
2461701.500000000, A.D. 2027-Oct-23 00:00:00.0000, 1.077806203699549E+08, 2.701191159881048E+08, 2.503070606504712E+07,
2461708.500000000, A.D. 2027-Oct-30 00:00:00.0000, 9.576261713377124E+07, 2.763109675551248E+08, 2.436397328352718E+07,
2461715.500000000, A.D. 2027-Nov-06 00:00:00.0000, 8.356062130010585E+07, 2.819721054021485E+08, 2.365043732159209E+07,
2461722.500000000, A.D. 2027-Nov-13 00:00:00.0000, 7.120065409378113E+07, 2.871003807565247E+08, 2.289220046492812E+07,
2461729.500000000, A.D. 2027-Nov-20 00:00:00.0000, 5.870828766578204E+07, 2.916950415905215E+08, 2.209140857174218E+07,
2461736.500000000, A.D. 2027-Nov-27 00:00:00.0000, 4.610857075948251E+07, 2.957566545315592E+08, 2.125023999051099E+07,
2461743.500000000, A.D. 2027-Dec-04 00:00:00.0000, 3.342596422011089E+07, 2.992870254586299E+08, 2.037089526178350E+07,
2461750.500000000, A.D. 2027-Dec-11 00:00:00.0000, 2.068428548186062E+07, 3.022891189160184E+08, 1.945558761186095E+07,
2461757.500000000, A.D. 2027-Dec-18 00:00:00.0000, 7.906661891520086E+06, 3.047669769905634E+08, 1.850653420628259E+07,
2461764.500000000, A.D. 2027-Dec-25 00:00:00.0000, -4.884507476444212E+06, 3.067256385173899E+08, 1.752594815584168E+07,
2461771.500000000, A.D. 2028-Jan-01 00:00:00.0000, -1.766758203241019E+07, 3.081710593790705E+08, 1.651603126802759E+07,
$$EOE